STARLINK-3747           
1 52306U 22041AX  26068.37520898  .00000710  00000+0  62715-4 0  9991
2 52306  53.2168  90.5307 0001331  87.2438 272.8707 15.08835851215811
2023-069B               
1 56732U 23069B   26068.54706144  .00006772  00000+0  42420-3 0  9992
2 56732  41.0081 274.4606 0011652 279.7432  80.2064 15.09579619155167
