[{"OBJECT_NAME":"STARLINK-3747","OBJECT_ID":"2022-041AX","EPOCH":"2026-03-09T09:00:18.055872","MEAN_MOTION":15.08835851,"ECCENTRICITY":0.00013319,"INCLINATION":53.2168,"RA_OF_ASC_NODE":90.5307,"ARG_OF_PERICENTER":87.2438,"MEAN_ANOMALY":272.8707,"EPHEMERIS_TYPE":0,"CLASSIFICATION_TYPE":"U","NORAD_CAT_ID":52306,"ELEMENT_SET_NO":999,"REV_AT_EPOCH":21581,"BSTAR":6.2714625e-5,"MEAN_MOTION_DOT":7.1e-6,"MEAN_MOTION_DDOT":0},{"OBJECT_NAME":"OBJECT B","OBJECT_ID":"2023-069B","EPOCH":"2026-03-09T13:07:46.108416","MEAN_MOTION":15.09579619,"ECCENTRICITY":0.00116524,"INCLINATION":41.0081,"RA_OF_ASC_NODE":274.4606,"ARG_OF_PERICENTER":279.7432,"MEAN_ANOMALY":80.2064,"EPHEMERIS_TYPE":0,"CLASSIFICATION_TYPE":"U","NORAD_CAT_ID":56732,"ELEMENT_SET_NO":999,"REV_AT_EPOCH":15516,"BSTAR":0.00042419683,"MEAN_MOTION_DOT":6.772e-5,"MEAN_MOTION_DDOT":0}]
